     2.10           NAVIGATION                              RINEX VERSION / TYPE
fic2rin                                 05/26/2008 02:02:00 PGM / RUN BY / DATE
                                                            END OF HEADER
11 08  5 25 20  0  0.0  .253096222878D-04 -.341060513165D-12  .000000000000D+00
     .470000000000D+02  .340625000000D+01  .628311885998D-08  .199889414050D+01
     .165775418282D-06  .804547930602D-02  .610575079918D-05  .515362428856D+04
     .720000000000D+05 -.167638063431D-06 -.351531326394D+00 -.130385160446D-07
     .891404035242D+00  .223562500000D+03  .592202065353D+00 -.887108380196D-08
    -.150006248362D-09  .100000000000D+01  .148100000000D+04  .000000000000D+00
     .240000000000D+01  .000000000000D+00 -.116415321827D-07  .470000000000D+02
     .648060000000D+05  .400000000000D+01
12 08  5 25 20  0  0.0 -.359027180821D-03  .227373675443D-12  .000000000000D+00
     .420000000000D+02 -.673437500000D+02  .431767984870D-08  .248427630202D+01
    -.340864062309D-05  .344372901600D-02  .864639878273D-05  .515360766792D+04
     .720000000000D+05  .391155481339D-07 -.225357268141D+01  .372529029846D-07
     .963823253667D+00  .212875000000D+03 -.960344792890D+00 -.780746806953D-08
    -.285726187357D-11  .100000000000D+01  .148100000000D+04  .000000000000D+00
     .240000000000D+01  .000000000000D+00 -.116415321827D-07  .420000000000D+02
     .648060000000D+05  .400000000000D+01
13 08  5 25 20  0  0.0  .256935134530D-03  .170530256582D-11  .000000000000D+00
     .750000000000D+02  .653750000000D+02  .398302305175D-08 -.166753221050D+01
     .356137752533D-05  .381066824775D-02  .419467687607D-05  .515363360214D+04
     .720000000000D+05  .391155481339D-07  .198040414920D+01  .521540641785D-07
     .995287637199D+00  .319437500000D+03  .145201082832D+01 -.790211486909D-08
     .237867050975D-09  .100000000000D+01  .148100000000D+04  .000000000000D+00
     .240000000000D+01  .000000000000D+00 -.111758708954D-07  .750000000000D+02
     .648060000000D+05  .400000000000D+01
14 08  5 25 20  0  0.0 -.262793153524D-03  .420641299570D-11  .000000000000D+00
     .100000000000D+03  .483750000000D+02  .404874007485D-08 -.192329790435D+01
     .263564288616D-05  .369682838209D-02  .462122261524D-05  .515369934845D+04
     .720000000000D+05  .372529029846D-07  .196310203860D+01  .726431608200D-07
     .989029216602D+00  .304843750000D+03 -.216094449759D+01 -.790211486909D-08
     .200722646618D-09  .100000000000D+01  .148100000000D+04  .000000000000D+00
     .340000000000D+01  .000000000000D+00 -.884756445885D-08  .100000000000D+03
     .648060000000D+05  .400000000000D+01
15 08  5 25 20  0  0.0 -.116471666843D-03 -.579802872380D-11  .000000000000D+00
     .700000000000D+02  .615625000000D+02  .480555731361D-08 -.981384751346D+00
     .310875475407D-05  .633010640740D-03  .474788248539D-05  .515365989494D+04
     .720000000000D+05 -.447034835815D-07  .192207846704D+01 -.856816768646D-07
     .957420937522D+00  .288531250000D+03 -.127393749231D+01 -.832141804903D-08
     .156077929844D-09  .100000000000D+01  .148100000000D+04  .000000000000D+00
     .240000000000D+01  .000000000000D+00 -.977888703346D-08  .700000000000D+02
     .648060000000D+05  .400000000000D+01
16 08  5 25 20  0  0.0  .123807229102D-03 -.147792889038D-11  .000000000000D+00
     .350000000000D+02 -.596875000000D+02  .424589114412D-08 -.741995560808D-01
    -.325031578541D-05  .476564175915D-02  .948645174503D-05  .515360246849D+04
     .720000000000D+05  .856816768646D-07 -.223721399644D+01 -.782310962677D-07
     .965505666512D+00  .202468750000D+03 -.497690475446D+00 -.786532762247D-08
    -.407159816984D-10  .100000000000D+01  .148100000000D+04  .000000000000D+00
     .240000000000D+01  .000000000000D+00 -.977888703346D-08  .350000000000D+02
     .648060000000D+05  .400000000000D+01
17 08  5 25 20  0  0.0  .389046035707D-04 -.113686837722D-12  .000000000000D+00
     .105000000000D+03  .187500000000D+01  .453876048616D-08 -.130793589865D+01
     .102445483208D-06  .357306702062D-02  .788643956184D-05  .515375193977D+04
     .720000000000D+05  .912696123123D-07 -.119600942033D+01 -.149011611938D-06
     .959250436540D+00  .230031250000D+03 -.277879294322D+01 -.788247119371D-08
     .243581574722D-09  .100000000000D+01  .148100000000D+04  .000000000000D+00
     .485000000000D+01  .000000000000D+00 -.102445483208D-07  .105000000000D+03
     .648060000000D+05  .400000000000D+01
18 08  5 25 20  0  0.0 -.174345448613D-03  .386535248253D-11  .000000000000D+00
     .500000000000D+02  .521562500000D+02  .479127100424D-08  .899137466399D-01
     .280700623989D-05  .929778546561D-02  .852532684803D-05  .515368967628D+04
     .720000000000D+05  .298023223877D-07  .922224905980D+00  .163912773132D-06
     .947886229963D+00  .211937500000D+03 -.251126788375D+01 -.823141430002D-08
    -.660741808263D-10  .100000000000D+01  .148100000000D+04  .000000000000D+00
     .240000000000D+01  .000000000000D+00 -.107102096081D-07  .500000000000D+02
     .648060000000D+05  .400000000000D+01
19 08  5 25 20  0  0.0  .306405127048D-04  .795807864051D-12  .000000000000D+00
     .640000000000D+02  .139375000000D+02  .463555023213D-08 -.169666164950D+01
     .774860382080D-06  .469418102875D-02  .762194395065D-05  .515368084335D+04
     .720000000000D+05 -.447034835815D-07 -.113887742666D+01  .875443220139D-07
     .957064531179D+00  .233343750000D+03 -.610575643486D+00 -.801819113270D-08
     .337514058815D-09  .100000000000D+01  .148100000000D+04  .000000000000D+00
     .240000000000D+01  .000000000000D+00 -.144354999065D-07  .640000000000D+02
     .648060000000D+05  .400000000000D+01
20 08  5 25 20  0  0.0  .113574322313D-03 -.795807864051D-12  .000000000000D+00
     .100000000000D+03  .601250000000D+02  .473555439771D-08  .107249121071D+00
     .279396772385D-05  .370120501611D-02  .885315239429D-05  .515356599426D+04
     .720000000000D+05  .745058059692D-08  .868632234865D+00 -.186264514923D-08
     .947428706723D+00  .204406250000D+03  .133869244781D+01 -.814212486647D-08
    -.114290474943D-09  .100000000000D+01  .148100000000D+04  .000000000000D+00
     .340000000000D+01  .000000000000D+00 -.651925802231D-08  .100000000000D+03
     .648060000000D+05  .400000000000D+01
21 08  5 25 20  0  0.0  .632521696389D-04 -.113686837722D-11  .000000000000D+00
     .540000000000D+02  .107812500000D+02  .515021452711D-08  .128305643270D+01
     .668689608574D-06  .139271517983D-01  .701099634171D-05  .515371464920D+04
     .720000000000D+05 -.132247805595D-06 -.135644732570D+00  .147148966789D-06
     .936600350947D+00  .232906250000D+03 -.272514837655D+01 -.837106297409D-08
    -.374658463172D-09  .100000000000D+01  .148100000000D+04  .000000000000D+00
     .240000000000D+01  .000000000000D+00 -.116415321827D-07  .540000000000D+02
     .648060000000D+05  .400000000000D+01
23 08  5 25 20  0  0.0  .355739146471D-03  .216004991671D-11  .000000000000D+00
     .290000000000D+02  .719375000000D+02  .445732852277D-08 -.237629283996D+01
     .382959842682D-05  .554058048874D-02  .442564487457D-05  .515373474503D+04
     .720000000000D+05 -.763684511185D-07  .193697486737D+01  .149011611938D-07
     .971163019421D+00  .305750000000D+03  .273599474231D+01 -.809462288782D-08
     .210008747707D-09  .100000000000D+01  .148100000000D+04  .000000000000D+00
     .240000000000D+01  .000000000000D+00 -.200234353542D-07  .290000000000D+02
     .648060000000D+05  .400000000000D+01
25 08  5 25 20  0  0.0 -.176255125552D-03 -.262616595137D-10  .000000000000D+00
     .940000000000D+02 -.597812500000D+02  .478698511143D-08  .408189573066D+00
    -.314228236675D-05  .117739069974D-01  .371411442757D-05  .515370352173D+04
     .720000000000D+05 -.143423676491D-06  .288579755801D+01 -.726431608200D-07
     .965025555816D+00  .315031250000D+03 -.124735366682D+01 -.855999941548D-08
    -.119290683221D-09  .100000000000D+01  .148100000000D+04  .000000000000D+00
     .240000000000D+01  .000000000000D+00 -.745058059692D-08  .940000000000D+02
     .648060000000D+05  .400000000000D+01
26 08  5 25 20  0  0.0  .260781496763D-03  .784439180279D-11  .000000000000D+00
     .720000000000D+02  .617812500000D+02  .392373486788D-08 -.303204919421D+01
     .291317701340D-05  .191715003457D-01  .463798642159D-05  .515360862541D+04
     .720000000000D+05  .894069671631D-07  .197908378664D+01 -.409781932831D-06
     .993234475563D+00  .305218750000D+03  .933149613930D+00 -.766317634491D-08
     .184650548579D-09  .100000000000D+01  .148100000000D+04  .000000000000D+00
     .240000000000D+01  .000000000000D+00 -.605359673500D-08  .720000000000D+02
     .648060000000D+05  .400000000000D+01
28 08  5 25 20  0  0.0 -.193361192942D-04 -.341060513165D-12  .000000000000D+00
     .590000000000D+02 -.726875000000D+02  .437089635109D-08 -.843834328058D+00
    -.380724668503D-05  .137833228800D-01  .953488051891D-05  .515371750450D+04
     .720000000000D+05  .372529029846D-08 -.222855004405D+01  .303611159325D-06
     .963649681363D+00  .196656250000D+03 -.209858048859D+01 -.806712174229D-08
    -.453590322429D-10  .100000000000D+01  .148100000000D+04  .000000000000D+00
     .340000000000D+01  .000000000000D+00 -.102445483208D-07  .590000000000D+02
     .648060000000D+05  .400000000000D+01
30 08  5 25 20  0  0.0  .781356357038D-04  .181898940355D-11  .000000000000D+00
     .440000000000D+02 -.629062500000D+02  .475698386176D-08 -.368223663479D+00
    -.322796404362D-05  .105820886092D-01  .855699181557D-05  .515373789215D+04
     .720000000000D+05 -.100582838058D-06 -.229535468237D+01  .912696123123D-07
     .948663384712D+00  .206718750000D+03  .137191868210D+01 -.828927385296D-08
     .275011455331D-10  .100000000000D+01  .148100000000D+04  .000000000000D+00
     .240000000000D+01  .000000000000D+00 -.838190317154D-08  .440000000000D+02
     .648060000000D+05  .400000000000D+01
